[{"OBJECT_NAME":"STARLINK-4131","OBJECT_ID":"2022-086E","EPOCH":"2026-03-09T16:44:39.392160","MEAN_MOTION":15.08827767,"ECCENTRICITY":0.00015979,"INCLINATION":53.2187,"RA_OF_ASC_NODE":204.0913,"ARG_OF_PERICENTER":45.235,"MEAN_ANOMALY":314.8772,"EPHEMERIS_TYPE":0,"CLASSIFICATION_TYPE":"U","NORAD_CAT_ID":53246,"ELEMENT_SET_NO":999,"REV_AT_EPOCH":20013,"BSTAR":-5.3472321e-5,"MEAN_MOTION_DOT":-1.139e-5,"MEAN_MOTION_DDOT":0},{"OBJECT_NAME":"COSMOS 886 DEB","OBJECT_ID":"1976-126S","EPOCH":"2026-03-09T21:56:14.599968","MEAN_MOTION":12.77359426,"ECCENTRICITY":0.10555572,"INCLINATION":65.8446,"RA_OF_ASC_NODE":295.88,"ARG_OF_PERICENTER":53.4024,"MEAN_ANOMALY":315.9492,"EPHEMERIS_TYPE":0,"CLASSIFICATION_TYPE":"U","NORAD_CAT_ID":9721,"ELEMENT_SET_NO":999,"REV_AT_EPOCH":28368,"BSTAR":0.00022738028,"MEAN_MOTION_DOT":5.23e-6,"MEAN_MOTION_DDOT":0}]
